HULIANWANG DIGUI 12D    
1 65998U 25231D   25303.68764193  .00000093  00000+0  15213-3 0  9993
2 65998  49.9999 298.1383 0006692 315.1705  44.8658 14.04583078  2060
HULIANWANG DIGUI 12E    
1 65999U 25231E   25303.90210384  .00000057  00000+0  13148-3 0  9992
2 65999  50.0018 297.2766 0008258 325.5142  34.5226 14.03842465  2098
HULIANWANG DIGUI 12F    
1 66000U 25231F   25303.61360747  .00000085  00000+0  14651-3 0  9994
2 66000  50.0060 298.4244 0005531 319.7423  40.3072 14.04996862  2053
HULIANWANG DIGUI 12G    
1 66001U 25231G   25303.61433894  .00000130  00000+0  17757-3 0  9990
2 66001  50.0027 298.4214 0006673 332.5585  27.4966 14.03864254  2050
HULIANWANG DIGUI 12H    
1 66002U 25231H   25303.61546183  .00000308  00000+0  28998-3 0  9993
2 66002  50.0064 298.4356 0007724 323.1077  36.9296 14.03809823  2051
HULIANWANG DIGUI 12J    
1 66003U 25231J   25300.97848525  .00000139  00000+0  17740-3 0  9990
2 66003  50.0043 309.1429 0005603 313.2008  46.8428 14.05796708  1682
CZ-8A R/B               
1 66004U 25231K   25303.92462779  .00000000  00000+0  59235-4 0  9995
2 66004  50.0036 294.6430 0116687 136.3777 224.6436 14.30031926  2135
STARLINK-34849          
1 66005U 25232A   25303.91668981 -.01838112  00000+0 -16905-1 0  9999
2 66005  53.1590 350.2947 0001240  69.0316  23.0905 15.70391103  2667
STARLINK-35336          
1 66006U 25232B   25303.91668981 -.01835658  00000+0 -16882-1 0  9996
2 66006  53.1589 350.2903 0001204  70.9149  23.1269 15.70388412  2677
STARLINK-35196          
1 66007U 25232C   25303.91668981 -.01836925  00000+0 -16896-1 0  9990
2 66007  53.1589 350.2867 0001268  73.1941  22.7689 15.70386626  2678
STARLINK-35236          
1 66008U 25232D   25303.91668981 -.01838617  00000+0 -16912-1 0  9990
2 66008  53.1590 350.2821 0001118  64.1304  33.7436 15.70390831  2673
STARLINK-35276          
1 66009U 25232E   25303.91668981 -.01841019  00000+0 -16936-1 0  9997
2 66009  53.1589 350.2785 0001151  75.1579  24.6330 15.70392447  2660
